[Satellite]
VERSION=1.1
NAME=APRIZESAT 6
NICKNAME=APRIZESAT 6
TLE1=1 37793U 11044F   15055.22366663  .00000939  00000-0  15718-3 0  9995
TLE2=2 37793  98.2144 161.0911 0046965 232.6536 183.2857 14.71543890189111
